[{"OBJECT_NAME":"STARLINK-33731","OBJECT_ID":"2025-070R","EPOCH":"2026-03-09T19:58:40.122048","MEAN_MOTION":15.2756587,"ECCENTRICITY":0.00016785,"INCLINATION":43.001,"RA_OF_ASC_NODE":259.3917,"ARG_OF_PERICENTER":276.4294,"MEAN_ANOMALY":83.6366,"EPHEMERIS_TYPE":0,"CLASSIFICATION_TYPE":"U","NORAD_CAT_ID":63475,"ELEMENT_SET_NO":999,"REV_AT_EPOCH":5299,"BSTAR":0.00092515326,"MEAN_MOTION_DOT":0.00025273,"MEAN_MOTION_DDOT":0},{"OBJECT_NAME":"TRANSPORTER-1 OBJECT Z","OBJECT_ID":"2021-006Z","EPOCH":"2026-03-09T22:55:57.522432","MEAN_MOTION":15.30965056,"ECCENTRICITY":0.00100878,"INCLINATION":97.2377,"RA_OF_ASC_NODE":113.4736,"ARG_OF_PERICENTER":179.6869,"MEAN_ANOMALY":180.438,"EPHEMERIS_TYPE":0,"CLASSIFICATION_TYPE":"U","NORAD_CAT_ID":47436,"ELEMENT_SET_NO":999,"REV_AT_EPOCH":28420,"BSTAR":0.00024088983,"MEAN_MOTION_DOT":7.143e-5,"MEAN_MOTION_DDOT":0}]
